STARLINK-2680           
1 48432U 21040E   24142.22190082  .00006586  00000+0  46051-3 0  9998
2 48432  53.0552 218.4962 0001573  93.1352 266.9817 15.06410689168626
STARLINK-2699           
1 48433U 21040F   24142.23432849  .00010633  00000+0  73145-3 0  9992
2 48433  53.0550 223.3258 0001463  98.7197 261.3958 15.06409025168553
STARLINK-2692           
1 48434U 21040G   24141.53541909  .00002098  00000+0  15977-3 0  9998
2 48434  53.0540 231.6942 0001508  90.5539 269.5623 15.06387325167775
STARLINK-2633           
1 48435U 21040H   24141.54181280  .00000674  00000+0  64131-4 0  9997
2 48435  53.0546 241.1629 0001736  68.2406 291.8768 15.06392584167634
STARLINK-2639           
1 48436U 21040J   24141.73024295 -.00001457  00000+0 -78961-4 0  9999
2 48436  53.0557 255.3066 0001430  80.5918 279.5232 15.06390881167902
STARLINK-2642           
1 48437U 21040K   24141.51553941  .00005028  00000+0  35633-3 0  9995
2 48437  53.0530 266.2650 0002124 121.9093 238.2103 15.06388888167283
STARLINK-2640           
1 48438U 21040L   24142.21683444  .00025091  00000+0  16969-2 0  9998
2 48438  53.0533 253.3938 0001431  75.4728 284.6420 15.06409667168806
STARLINK-2583           
1 48439U 21040M   24141.59017700  .00001821  00000+0  14112-3 0  9999
2 48439  53.0530 255.9382 0001502  87.0449 273.0712 15.06404946167432
STARLINK-2682           
1 48440U 21040N   24141.52015185  .00004245  00000+0  30373-3 0  9999
2 48440  53.0537 256.2513 0001702 111.5780 248.5390 15.06393340167427
STARLINK-2702           
1 48441U 21040P   24141.51646514  .00002481  00000+0  18543-3 0  9990
2 48441  53.0532 256.2702 0001540  91.1456 268.9709 15.06392761167422
STARLINK-2644           
1 48442U 21040Q   24141.71181266  .00020498  00000+0  13912-2 0  9993
2 48442  53.0547 255.3932 0001513  86.8899 273.2263 15.06394441168732
STARLINK-2663           
1 48443U 21040R   24141.70813825  .00004677  00000+0  33271-3 0  9998
2 48443  53.0534 255.4066 0001649  70.9827 289.1340 15.06392279168732
STARLINK-2645           
1 48444U 21040S   24141.70445683  .00005045  00000+0  35741-3 0  9996
2 48444  53.0543 255.4249 0001312  83.9158 276.1980 15.06393388168732
STARLINK-2634           
1 48445U 21040T   24141.56806593  .00001282  00000+0  10501-3 0  9998
2 48445  53.0536 256.0337 0001609 114.5788 245.5369 15.06383051168714
