[
  {
    "OBJECT_NAME": "STARLINK-2680",
    "OBJECT_ID": "2021-040E",
    "EPOCH": "2024-05-21T05:19:32.230848",
    "MEAN_MOTION": 15.06410689,
    "ECCENTRICITY": 0.0001573,
    "INCLINATION": 53.0552,
    "RA_OF_ASC_NODE": 218.4962,
    "ARG_OF_PERICENTER": 93.1352,
    "MEAN_ANOMALY": 266.9817,
    "EPHEMERIS_TYPE": 0,
    "CLASSIFICATION_TYPE": "U",
    "NORAD_CAT_ID": 48432,
    "ELEMENT_SET_NO": 999,
    "REV_AT_EPOCH": 16862,
    "BSTAR": 0.00046051,
    "MEAN_MOTION_DOT": 6.586e-5,
    "MEAN_MOTION_DDOT": 0
  },
  {
    "OBJECT_NAME": "STARLINK-2699",
    "OBJECT_ID": "2021-040F",
    "EPOCH": "2024-05-21T05:37:25.981536",
    "MEAN_MOTION": 15.06409025,
    "ECCENTRICITY": 0.0001463,
    "INCLINATION": 53.055,
    "RA_OF_ASC_NODE": 223.3258,
    "ARG_OF_PERICENTER": 98.7197,
    "MEAN_ANOMALY": 261.3958,
    "EPHEMERIS_TYPE": 0,
    "CLASSIFICATION_TYPE": "U",
    "NORAD_CAT_ID": 48433,
    "ELEMENT_SET_NO": 999,
    "REV_AT_EPOCH": 16855,
    "BSTAR": 0.00073145,
    "MEAN_MOTION_DOT": 0.00010633,
    "MEAN_MOTION_DDOT": 0
  },
  {
    "OBJECT_NAME": "STARLINK-2692",
    "OBJECT_ID": "2021-040G",
    "EPOCH": "2024-05-20T12:51:00.209376",
    "MEAN_MOTION": 15.06387325,
    "ECCENTRICITY": 0.0001508,
    "INCLINATION": 53.054,
    "RA_OF_ASC_NODE": 231.6942,
    "ARG_OF_PERICENTER": 90.5539,
    "MEAN_ANOMALY": 269.5623,
    "EPHEMERIS_TYPE": 0,
    "CLASSIFICATION_TYPE": "U",
    "NORAD_CAT_ID": 48434,
    "ELEMENT_SET_NO": 999,
    "REV_AT_EPOCH": 16777,
    "BSTAR": 0.00015977,
    "MEAN_MOTION_DOT": 2.098e-5,
    "MEAN_MOTION_DDOT": 0
  },
  {
    "OBJECT_NAME": "STARLINK-2633",
    "OBJECT_ID": "2021-040H",
    "EPOCH": "2024-05-20T13:00:12.625920",
    "MEAN_MOTION": 15.06392584,
    "ECCENTRICITY": 0.0001736,
    "INCLINATION": 53.0546,
    "RA_OF_ASC_NODE": 241.1629,
    "ARG_OF_PERICENTER": 68.2406,
    "MEAN_ANOMALY": 291.8768,
    "EPHEMERIS_TYPE": 0,
    "CLASSIFICATION_TYPE": "U",
    "NORAD_CAT_ID": 48435,
    "ELEMENT_SET_NO": 999,
    "REV_AT_EPOCH": 16763,
    "BSTAR": 6.4131e-5,
    "MEAN_MOTION_DOT": 6.74e-6,
    "MEAN_MOTION_DDOT": 0
  },
  {
    "OBJECT_NAME": "STARLINK-2639",
    "OBJECT_ID": "2021-040J",
    "EPOCH": "2024-05-20T17:31:32.990880",
    "MEAN_MOTION": 15.06390881,
    "ECCENTRICITY": 0.000143,
    "INCLINATION": 53.0557,
    "RA_OF_ASC_NODE": 255.3066,
    "ARG_OF_PERICENTER": 80.5918,
    "MEAN_ANOMALY": 279.5232,
    "EPHEMERIS_TYPE": 0,
    "CLASSIFICATION_TYPE": "U",
    "NORAD_CAT_ID": 48436,
    "ELEMENT_SET_NO": 999,
    "REV_AT_EPOCH": 16790,
    "BSTAR": -7.8961e-5,
    "MEAN_MOTION_DOT": -1.457e-5,
    "MEAN_MOTION_DDOT": 0
  },
  {
    "OBJECT_NAME": "STARLINK-2642",
    "OBJECT_ID": "2021-040K",
    "EPOCH": "2024-05-20T12:22:22.605024",
    "MEAN_MOTION": 15.06388888,
    "ECCENTRICITY": 0.0002124,
    "INCLINATION": 53.053,
    "RA_OF_ASC_NODE": 266.265,
    "ARG_OF_PERICENTER": 121.9093,
    "MEAN_ANOMALY": 238.2103,
    "EPHEMERIS_TYPE": 0,
    "CLASSIFICATION_TYPE": "U",
    "NORAD_CAT_ID": 48437,
    "ELEMENT_SET_NO": 999,
    "REV_AT_EPOCH": 16728,
    "BSTAR": 0.00035633,
    "MEAN_MOTION_DOT": 5.028e-5,
    "MEAN_MOTION_DDOT": 0
  },
  {
    "OBJECT_NAME": "STARLINK-2640",
    "OBJECT_ID": "2021-040L",
    "EPOCH": "2024-05-21T05:12:14.495616",
    "MEAN_MOTION": 15.06409667,
    "ECCENTRICITY": 0.0001431,
    "INCLINATION": 53.0533,
    "RA_OF_ASC_NODE": 253.3938,
    "ARG_OF_PERICENTER": 75.4728,
    "MEAN_ANOMALY": 284.642,
    "EPHEMERIS_TYPE": 0,
    "CLASSIFICATION_TYPE": "U",
    "NORAD_CAT_ID": 48438,
    "ELEMENT_SET_NO": 999,
    "REV_AT_EPOCH": 16880,
    "BSTAR": 0.0016969,
    "MEAN_MOTION_DOT": 0.00025091,
    "MEAN_MOTION_DDOT": 0
  },
  {
    "OBJECT_NAME": "STARLINK-2583",
    "OBJECT_ID": "2021-040M",
    "EPOCH": "2024-05-20T14:09:51.292800",
    "MEAN_MOTION": 15.06404946,
    "ECCENTRICITY": 0.0001502,
    "INCLINATION": 53.053,
    "RA_OF_ASC_NODE": 255.9382,
    "ARG_OF_PERICENTER": 87.0449,
    "MEAN_ANOMALY": 273.0712,
    "EPHEMERIS_TYPE": 0,
    "CLASSIFICATION_TYPE": "U",
    "NORAD_CAT_ID": 48439,
    "ELEMENT_SET_NO": 999,
    "REV_AT_EPOCH": 16743,
    "BSTAR": 0.00014112,
    "MEAN_MOTION_DOT": 1.821e-5,
    "MEAN_MOTION_DDOT": 0
  },
  {
    "OBJECT_NAME": "STARLINK-2682",
    "OBJECT_ID": "2021-040N",
    "EPOCH": "2024-05-20T12:29:01.119840",
    "MEAN_MOTION": 15.0639334,
    "ECCENTRICITY": 0.0001702,
    "INCLINATION": 53.0537,
    "RA_OF_ASC_NODE": 256.2513,
    "ARG_OF_PERICENTER": 111.578,
    "MEAN_ANOMALY": 248.539,
    "EPHEMERIS_TYPE": 0,
    "CLASSIFICATION_TYPE": "U",
    "NORAD_CAT_ID": 48440,
    "ELEMENT_SET_NO": 999,
    "REV_AT_EPOCH": 16742,
    "BSTAR": 0.00030373,
    "MEAN_MOTION_DOT": 4.245e-5,
    "MEAN_MOTION_DDOT": 0
  },
  {
    "OBJECT_NAME": "STARLINK-2702",
    "OBJECT_ID": "2021-040P",
    "EPOCH": "2024-05-20T12:23:42.588096",
    "MEAN_MOTION": 15.06392761,
    "ECCENTRICITY": 0.000154,
    "INCLINATION": 53.0532,
    "RA_OF_ASC_NODE": 256.2702,
    "ARG_OF_PERICENTER": 91.1456,
    "MEAN_ANOMALY": 268.9709,
    "EPHEMERIS_TYPE": 0,
    "CLASSIFICATION_TYPE": "U",
    "NORAD_CAT_ID": 48441,
    "ELEMENT_SET_NO": 999,
    "REV_AT_EPOCH": 16742,
    "BSTAR": 0.00018543,
    "MEAN_MOTION_DOT": 2.481e-5,
    "MEAN_MOTION_DDOT": 0
  },
  {
    "OBJECT_NAME": "STARLINK-2644",
    "OBJECT_ID": "2021-040Q",
    "EPOCH": "2024-05-20T17:05:00.613824",
    "MEAN_MOTION": 15.06394441,
    "ECCENTRICITY": 0.0001513,
    "INCLINATION": 53.0547,
    "RA_OF_ASC_NODE": 255.3932,
    "ARG_OF_PERICENTER": 86.8899,
    "MEAN_ANOMALY": 273.2263,
    "EPHEMERIS_TYPE": 0,
    "CLASSIFICATION_TYPE": "U",
    "NORAD_CAT_ID": 48442,
    "ELEMENT_SET_NO": 999,
    "REV_AT_EPOCH": 16873,
    "BSTAR": 0.0013912,
    "MEAN_MOTION_DOT": 0.00020498,
    "MEAN_MOTION_DDOT": 0
  },
  {
    "OBJECT_NAME": "STARLINK-2663",
    "OBJECT_ID": "2021-040R",
    "EPOCH": "2024-05-20T16:59:43.144800",
    "MEAN_MOTION": 15.06392279,
    "ECCENTRICITY": 0.0001649,
    "INCLINATION": 53.0534,
    "RA_OF_ASC_NODE": 255.4066,
    "ARG_OF_PERICENTER": 70.9827,
    "MEAN_ANOMALY": 289.134,
    "EPHEMERIS_TYPE": 0,
    "CLASSIFICATION_TYPE": "U",
    "NORAD_CAT_ID": 48443,
    "ELEMENT_SET_NO": 999,
    "REV_AT_EPOCH": 16873,
    "BSTAR": 0.00033271,
    "MEAN_MOTION_DOT": 4.677e-5,
    "MEAN_MOTION_DDOT": 0
  },
  {
    "OBJECT_NAME": "STARLINK-2645",
    "OBJECT_ID": "2021-040S",
    "EPOCH": "2024-05-20T16:54:25.070112",
    "MEAN_MOTION": 15.06393388,
    "ECCENTRICITY": 0.0001312,
    "INCLINATION": 53.0543,
    "RA_OF_ASC_NODE": 255.4249,
    "ARG_OF_PERICENTER": 83.9158,
    "MEAN_ANOMALY": 276.198,
    "EPHEMERIS_TYPE": 0,
    "CLASSIFICATION_TYPE": "U",
    "NORAD_CAT_ID": 48444,
    "ELEMENT_SET_NO": 999,
    "REV_AT_EPOCH": 16873,
    "BSTAR": 0.00035741,
    "MEAN_MOTION_DOT": 5.045e-5,
    "MEAN_MOTION_DDOT": 0
  },
  {
    "OBJECT_NAME": "STARLINK-2634",
    "OBJECT_ID": "2021-040T",
    "EPOCH": "2024-05-20T13:38:00.896352",
    "MEAN_MOTION": 15.06383051,
    "ECCENTRICITY": 0.0001609,
    "INCLINATION": 53.0536,
    "RA_OF_ASC_NODE": 256.0337,
    "ARG_OF_PERICENTER": 114.5788,
    "MEAN_ANOMALY": 245.5369,
    "EPHEMERIS_TYPE": 0,
    "CLASSIFICATION_TYPE": "U",
    "NORAD_CAT_ID": 48445,
    "ELEMENT_SET_NO": 999,
    "REV_AT_EPOCH": 16871,
    "BSTAR": 0.00010501,
    "MEAN_MOTION_DOT": 1.282e-5,
    "MEAN_MOTION_DDOT": 0
  }
]